AFOTEC-1 (FALCON ODE)   
1 44225U 19026A   20182.65993836  .00000319  00000-0  22221-4 0  9993
2 44225  40.0189 283.2876 0005534 146.0217 214.0939 15.20831288 64304
SPARC-1                 
1 44226U 19026B   20182.71613500  .00000682  00000-0  36887-4 0  9994
2 44226  40.0187 278.3550 0009812 142.2068 217.9424 15.22250893 64368
ELECTRON KICK STAGE R/B 
1 44227U 19026C   20182.71983874  .00000539  00000-0  31107-4 0  9990
2 44227  40.0242 279.4538 0008315 147.4102 212.7213 15.21909093 64352
HARBINGER (ICEYE-X3)    
1 44229U 19026E   20182.72211671  .00000311  00000-0  21731-4 0  9992
2 44229  40.0189 281.9735 0006342 137.6625 222.4666 15.21062119 64326
